IRIDIUM 36 [-]          
1 24967U 97056C   24039.44149047  .00000901  00000+0  29974-3 0  9999
2 24967  86.3974  20.7261 0002226  91.7211 268.4241 14.36616928381160
IRIDIUM 39 [-]          
1 25042U 97069D   24039.56066517  .00001183  00000+0  31483-3 0  9992
2 25042  86.3871  63.0162 0019374 150.8475 209.3814 14.47672034377361
IRIDIUM 38 [-]          
1 25043U 97069E   24039.55918955  .00000709  00000+0  23224-3 0  9991
2 25043  86.3914  81.1383 0001007  19.8349 340.2888 14.37082676374891
IRIDIUM 42 [-]          
1 25077U 97077A   24039.59838458  .00000659  00000+0  22284-3 0  9999
2 25077  86.3923  86.6924 0001599  84.1425 275.9954 14.35379179370221
IRIDIUM 44 [-]          
1 25078U 97077B   24039.55565238  .00000808  00000+0  25446-3 0  9998
2 25078  86.3908  69.9493 0001994 143.0815 217.0521 14.39194734372536
IRIDIUM 45 [-]          
1 25104U 97082A   24039.43137969  .00015964  00000+0  97115-3 0  9998
2 25104  86.3744 282.9877 0170683 351.0841   8.7366 14.98863243377393
IRIDIUM 24 [-]          
1 25105U 97082B   24039.59500392  .00000797  00000+0  24210-3 0  9994
2 25105  86.3901 289.7592 0009418 272.3842  87.6280 14.40973362371960
IRIDIUM 51 [-]          
1 25262U 98018A   24039.18908895  .00018477  00000+0  95797-3 0  9995
2 25262  86.3963 293.3007 0152869 301.3055  57.3288 15.06379182371811
